start=new Date('2022-08-30T00:00:00.000Z').valueOf();
sats=[{"TLE_LINE1":"1 49455U 21104AZ  22241.49064632  .00001988  00000-0  14295-3 0  9990","DECAY_DATE":null,"MEAN_MOTION":"15.08847608","SITE":"AFETR","ELEMENT_SET_NO":"999","REF_FRAME":"TEME","MEAN_ELEMENT_THEORY":"SGP4","EPHEMERIS_TYPE":"0","CENTER_NAME":"EARTH","FILE":"3550737","INCLINATION":"53.2168","MEAN_ANOMALY":"318.1843","ARG_OF_PERICENTER":"41.9338","OBJECT_NAME":"STARLINK-3145","RCS_SIZE":"LARGE","TLE_LINE2":"2 49455  53.2168 242.0697 0002476  41.9338 318.1843 15.08847608 44307","GP_ID":"211255430","ECCENTRICITY":"0.00024760","REV_AT_EPOCH":"4430","BSTAR":"0.00014295000000","MEAN_MOTION_DOT":"0.00001988","SEMIMAJOR_AXIS":"6917.857","PERIAPSIS":"538.009","OBJECT_ID":"2021-104AZ","MEAN_MOTION_DDOT":"0.0000000000000","LAUNCH_DATE":"2021-11-13","EPOCH":"2022-08-29T11:46:31.842048","RA_OF_ASC_NODE":"242.0697","NORAD_CAT_ID":"49455","OBJECT_TYPE":"PAYLOAD","CLASSIFICATION_TYPE":"U","APOAPSIS":"541.435","COUNTRY_CODE":"US","PERIOD":"95.437","TIME_SYSTEM":"UTC"},{"OBJECT_NAME":"STARLINK-3124","ARG_OF_PERICENTER":"49.5672","MEAN_ANOMALY":"310.5486","RCS_SIZE":"LARGE","TLE_LINE2":"2 49456  53.2152 241.1560 0001909  49.5672 310.5486 15.08842499 44330","GP_ID":"211288514","ECCENTRICITY":"0.00019090","MEAN_MOTION":"15.08842499","DECAY_DATE":null,"TLE_LINE1":"1 49456U 21104BA  22241.69672913 -.00000608  00000-0 -20122-4 0  9997","SITE":"AFETR","MEAN_ELEMENT_THEORY":"SGP4","REF_FRAME":"TEME","ELEMENT_SET_NO":"999","EPHEMERIS_TYPE":"0","CENTER_NAME":"EARTH","FILE":"3551093","INCLINATION":"53.2152","CLASSIFICATION_TYPE":"U","APOAPSIS":"541.058","COUNTRY_CODE":"US","PERIOD":"95.437","TIME_SYSTEM":"UTC","MEAN_MOTION_DOT":"-0.00000608","BSTAR":"-0.00002012200000","REV_AT_EPOCH":"4433","PERIAPSIS":"538.417","SEMIMAJOR_AXIS":"6917.873","OBJECT_ID":"2021-104BA","MEAN_MOTION_DDOT":"0.0000000000000","EPOCH":"2022-08-29T16:43:17.396832","LAUNCH_DATE":"2021-11-13","RA_OF_ASC_NODE":"241.1560","NORAD_CAT_ID":"49456","OBJECT_TYPE":"PAYLOAD"},{"MEAN_ELEMENT_THEORY":"SGP4","REF_FRAME":"TEME","ELEMENT_SET_NO":"999","EPHEMERIS_TYPE":"0","CENTER_NAME":"EARTH","DECAY_DATE":null,"MEAN_MOTION":"15.08852978","TLE_LINE1":"1 49457U 21104BB  22241.28824208  .00000938  00000-0  76997-4 0  9994","SITE":"AFETR","FILE":"3550737","INCLINATION":"53.2177","RCS_SIZE":"LARGE","OBJECT_NAME":"STARLINK-3132","ARG_OF_PERICENTER":"59.1734","MEAN_ANOMALY":"300.9439","TLE_LINE2":"2 49457  53.2177 242.9908 0001841  59.1734 300.9439 15.08852978 44271","GP_ID":"211255889","ECCENTRICITY":"0.00018410","OBJECT_ID":"2021-104BB","MEAN_MOTION_DOT":"0.00000938","REV_AT_EPOCH":"4427","BSTAR":"0.00007699700000","PERIAPSIS":"538.432","SEMIMAJOR_AXIS":"6917.841","OBJECT_TYPE":"PAYLOAD","NORAD_CAT_ID":"49457","MEAN_MOTION_DDOT":"0.0000000000000","LAUNCH_DATE":"2021-11-13","RA_OF_ASC_NODE":"242.9908","EPOCH":"2022-08-29T06:55:04.115712","APOAPSIS":"540.979","CLASSIFICATION_TYPE":"U","TIME_SYSTEM":"UTC","COUNTRY_CODE":"US","PERIOD":"95.437"},{"SEMIMAJOR_AXIS":"6917.923","PERIAPSIS":"538.342","BSTAR":"0.00004213800000","REV_AT_EPOCH":"4427","MEAN_MOTION_DOT":"0.00000382","OBJECT_ID":"2021-104BC","RA_OF_ASC_NODE":"242.9547","LAUNCH_DATE":"2021-11-13","EPOCH":"2022-08-29T07:05:41.282016","MEAN_MOTION_DDOT":"0.0000000000000","OBJECT_TYPE":"PAYLOAD","NORAD_CAT_ID":"49458","CLASSIFICATION_TYPE":"U","APOAPSIS":"541.234","PERIOD":"95.438","COUNTRY_CODE":"US","TIME_SYSTEM":"UTC","SITE":"AFETR","TLE_LINE1":"1 49458U 21104BC  22241.29561669  .00000382  00000-0  42138-4 0  9998","MEAN_MOTION":"15.08826157","DECAY_DATE":null,"EPHEMERIS_TYPE":"0","CENTER_NAME":"EARTH","ELEMENT_SET_NO":"999","MEAN_ELEMENT_THEORY":"SGP4","REF_FRAME":"TEME","INCLINATION":"53.2179","FILE":"3550737","MEAN_ANOMALY":"308.9325","ARG_OF_PERICENTER":"51.1854","OBJECT_NAME":"STARLINK-3156","RCS_SIZE":"LARGE","ECCENTRICITY":"0.00020900","GP_ID":"211254680","TLE_LINE2":"2 49458  53.2179 242.9547 0002090  51.1854 308.9325 15.08826157 44277"},{"BSTAR":"-0.00001706000000","REV_AT_EPOCH":"4430","MEAN_MOTION_DOT":"-0.00000560","SEMIMAJOR_AXIS":"6917.870","PERIAPSIS":"538.528","OBJECT_ID":"2021-104BD","MEAN_MOTION_DDOT":"0.0000000000000","EPOCH":"2022-08-29T11:35:55.637376","LAUNCH_DATE":"2021-11-13","RA_OF_ASC_NODE":"242.1133","NORAD_CAT_ID":"49459","OBJECT_TYPE":"PAYLOAD","CLASSIFICATION_TYPE":"U","APOAPSIS":"540.942","COUNTRY_CODE":"US","PERIOD":"95.437","TIME_SYSTEM":"UTC","TLE_LINE1":"1 49459U 21104BD  22241.48328284 -.00000560  00000-0 -17060-4 0  9990","MEAN_MOTION":"15.08843363","DECAY_DATE":null,"SITE":"AFETR","ELEMENT_SET_NO":"999","MEAN_ELEMENT_THEORY":"SGP4","REF_FRAME":"TEME","EPHEMERIS_TYPE":"0","CENTER_NAME":"EARTH","FILE":"3550737","INCLINATION":"53.2162","MEAN_ANOMALY":"298.3145","ARG_OF_PERICENTER":"61.8023","OBJECT_NAME":"STARLINK-3141","RCS_SIZE":"LARGE","TLE_LINE2":"2 49459  53.2162 242.1133 0001745  61.8023 298.3145 15.08843363 44309","ECCENTRICITY":"0.00017450","GP_ID":"211254930"},{"LAUNCH_DATE":"2021-11-13","EPOCH":"2022-08-29T06:44:28.107168","RA_OF_ASC_NODE":"243.0294","MEAN_MOTION_DDOT":"0.0000000000000","OBJECT_TYPE":"PAYLOAD","NORAD_CAT_ID":"49460","PERIAPSIS":"538.494","SEMIMAJOR_AXIS":"6917.875","MEAN_MOTION_DOT":"0.00000009","REV_AT_EPOCH":"4426","BSTAR":"0.00001867500000","OBJECT_ID":"2021-104BE","PERIOD":"95.437","COUNTRY_CODE":"US","TIME_SYSTEM":"UTC","CLASSIFICATION_TYPE":"U","APOAPSIS":"540.986","INCLINATION":"53.2155","FILE":"3550737","SITE":"AFETR","MEAN_MOTION":"15.08841703","DECAY_DATE":null,"TLE_LINE1":"1 49460U 21104BE  22241.28088087  .00000009  00000-0  18675-4 0  9993","CENTER_NAME":"EARTH","EPHEMERIS_TYPE":"0","MEAN_ELEMENT_THEORY":"SGP4","REF_FRAME":"TEME","ELEMENT_SET_NO":"999","GP_ID":"211256182","ECCENTRICITY":"0.00018010","TLE_LINE2":"2 49460  53.2155 243.0294 0001801  55.0787 305.0374 15.08841703 44267","OBJECT_NAME":"STARLINK-3140","ARG_OF_PERICENTER":"55.0787","MEAN_ANOMALY":"305.0374","RCS_SIZE":"LARGE"},{"TIME_SYSTEM":"UTC","PERIOD":"95.437","COUNTRY_CODE":"US","APOAPSIS":"541.175","CLASSIFICATION_TYPE":"U","NORAD_CAT_ID":"49724","OBJECT_TYPE":"PAYLOAD","LAUNCH_DATE":"2021-12-02","EPOCH":"2022-08-29T04:42:37.765152","RA_OF_ASC_NODE":"173.3899","MEAN_MOTION_DDOT":"0.0000000000000","OBJECT_ID":"2021-115A","PERIAPSIS":"538.274","SEMIMAJOR_AXIS":"6917.860","MEAN_MOTION_DOT":"0.00000363","BSTAR":"0.00004092700000","REV_AT_EPOCH":"4101","ECCENTRICITY":"0.00020970","GP_ID":"211255447","TLE_LINE2":"2 49724  53.2168 173.3899 0002097  62.8480 297.2726 15.08846780 41017","RCS_SIZE":"LARGE","OBJECT_NAME":"STARLINK-3219","ARG_OF_PERICENTER":"62.8480","MEAN_ANOMALY":"297.2726","INCLINATION":"53.2168","FILE":"3550737","EPHEMERIS_TYPE":"0","CENTER_NAME":"EARTH","MEAN_ELEMENT_THEORY":"SGP4","REF_FRAME":"TEME","ELEMENT_SET_NO":"999","SITE":"AFETR","MEAN_MOTION":"15.08846780","DECAY_DATE":null,"TLE_LINE1":"1 49724U 21115A   22241.19627043  .00000363  00000-0  40927-4 0  9997"},{"NORAD_CAT_ID":"49725","OBJECT_TYPE":"PAYLOAD","MEAN_MOTION_DDOT":"0.0000000000000","LAUNCH_DATE":"2021-12-02","RA_OF_ASC_NODE":"170.5771","EPOCH":"2022-08-29T19:48:49.877856","OBJECT_ID":"2021-115B","MEAN_MOTION_DOT":"-0.00001999","BSTAR":"-0.00010756000000","REV_AT_EPOCH":"4222","PERIAPSIS":"538.423","SEMIMAJOR_AXIS":"6917.909","TIME_SYSTEM":"UTC","COUNTRY_CODE":"US","PERIOD":"95.438","APOAPSIS":"541.126","CLASSIFICATION_TYPE":"U","FILE":"3550838","INCLINATION":"53.2166","MEAN_ELEMENT_THEORY":"SGP4","REF_FRAME":"TEME","ELEMENT_SET_NO":"999","EPHEMERIS_TYPE":"0","CENTER_NAME":"EARTH","DECAY_DATE":null,"MEAN_MOTION":"15.08830497","TLE_LINE1":"1 49725U 21115B   22241.82557729 -.00001999  00000-0 -10756-3 0  9995","SITE":"AFETR","TLE_LINE2":"2 49725  53.2166 170.5771 0001953  74.6332 285.4876 15.08830497 42228","ECCENTRICITY":"0.00019530","GP_ID":"211259341","RCS_SIZE":"LARGE","OBJECT_NAME":"STARLINK-3218","ARG_OF_PERICENTER":"74.6332","MEAN_ANOMALY":"285.4876"},{"CENTER_NAME":"EARTH","EPHEMERIS_TYPE":"0","ELEMENT_SET_NO":"999","MEAN_ELEMENT_THEORY":"SGP4","REF_FRAME":"TEME","SITE":"AFETR","TLE_LINE1":"1 49726U 21115C   22241.85312445 -.00000778  00000-0 -30772-4 0  9998","DECAY_DATE":null,"MEAN_MOTION":"15.08845492","INCLINATION":"53.2171","FILE":"3551093","RCS_SIZE":"LARGE","MEAN_ANOMALY":"299.4769","ARG_OF_PERICENTER":"60.6421","OBJECT_NAME":"STARLINK-3237","ECCENTRICITY":"0.00019910","GP_ID":"211288780","TLE_LINE2":"2 49726  53.2171 180.4587 0001991  60.6421 299.4769 15.08845492 40973","OBJECT_ID":"2021-115C","SEMIMAJOR_AXIS":"6917.864","PERIAPSIS":"538.351","REV_AT_EPOCH":"4097","BSTAR":"-0.00003077200000","MEAN_MOTION_DOT":"-0.00000778","NORAD_CAT_ID":"49726","OBJECT_TYPE":"PAYLOAD","EPOCH":"2022-08-29T20:28:29.952480","LAUNCH_DATE":"2021-12-02","RA_OF_ASC_NODE":"180.4587","MEAN_MOTION_DDOT":"0.0000000000000","APOAPSIS":"541.106","CLASSIFICATION_TYPE":"U","TIME_SYSTEM":"UTC","PERIOD":"95.437","COUNTRY_CODE":"US"},{"TIME_SYSTEM":"UTC","COUNTRY_CODE":"US","PERIOD":"95.438","APOAPSIS":"541.050","CLASSIFICATION_TYPE":"U","OBJECT_TYPE":"PAYLOAD","NORAD_CAT_ID":"49727","MEAN_MOTION_DDOT":"0.0000000000000","LAUNCH_DATE":"2021-12-02","RA_OF_ASC_NODE":"183.1156","EPOCH":"2022-08-29T06:15:18.866592","OBJECT_ID":"2021-115D","MEAN_MOTION_DOT":"0.00000597","REV_AT_EPOCH":"4088","BSTAR":"0.00005561200000","PERIAPSIS":"538.452","SEMIMAJOR_AXIS":"6917.886","TLE_LINE2":"2 49727  53.2157 183.1156 0001878  60.3591 299.7588 15.08838104 40883","GP_ID":"211254697","ECCENTRICITY":"0.00018780","RCS_SIZE":"LARGE","OBJECT_NAME":"STARLINK-3242","ARG_OF_PERICENTER":"60.3591","MEAN_ANOMALY":"299.7588","FILE":"3550737","INCLINATION":"53.2157","MEAN_ELEMENT_THEORY":"SGP4","REF_FRAME":"TEME","ELEMENT_SET_NO":"999","EPHEMERIS_TYPE":"0","CENTER_NAME":"EARTH","MEAN_MOTION":"15.08838104","DECAY_DATE":null,"TLE_LINE1":"1 49727U 21115D   22241.26063503  .00000597  00000-0  55612-4 0  9999","SITE":"AFETR"}];
